NORAD_CAT_ID,OBJECT_NAME,OBJECT_TYPE,EPOCH,MEAN_MOTION,ECCENTRICITY,INCLINATION,RA_OF_ASC_NODE,ARG_OF_PERICENTER,MEAN_ANOMALY,BSTAR,MEAN_MOTION_DOT,MEAN_MOTION_DDOT,TLE_LINE0,TLE_LINE1,TLE_LINE2,SEMIMAJOR_AXIS,PERIOD,APOGEE,PERIGEE,DECAYED
52559.0,STARLINK-3953,PAYLOAD,2023-04-22 20:05:24,15.08843061,0.0001006,53.2138,161.2522,106.8486,253.2617,3.9295e-05,3.38e-06,0.0,0 STARLINK-3953,1 52559U 22051AC  23112.83708888  .00000338  00000-0  39295-4 0  9991,2 52559  53.2138 161.2522 0001006 106.8486 253.2617 15.08843061 52851,6917.871,95.437,540.432,539.04,0.0
52559.0,STARLINK-3953,PAYLOAD,2023-04-23 11:59:16,15.08836186,0.0001085,53.214,158.2786,95.6614,264.4501,0.0002058,2.989e-05,0.0,0 STARLINK-3953,1 52559U 22051AC  23113.49949758  .00002989  00000-0  20580-3 0  9997,2 52559  53.2140 158.2786 0001085  95.6614 264.4501 15.08836186 52886,6917.892,95.438,540.508,539.006,0.0
52559.0,STARLINK-3953,PAYLOAD,2023-04-24 03:53:07,15.08864701,0.0001163,53.2149,155.305,91.876,268.2365,0.00051042,7.85e-05,0.0,0 STARLINK-3953,1 52559U 22051AC  23114.16188664  .00007850  00000-0  51042-3 0  9992,2 52559  53.2149 155.3050 0001163  91.8760 268.2365 15.08864701 53058,6917.805,95.436,540.474,538.865,0.0
52559.0,STARLINK-3953,PAYLOAD,2023-04-25 11:40:50,15.08824406,0.0001358,53.2147,149.3563,99.4818,260.6328,-0.00020959,-3.621e-05,0.0,0 STARLINK-3953,1 52559U 22051AC  23115.48670092 -.00003621  00000-0 -20959-3 0  9996,2 52559  53.2147 149.3563 0001358  99.4818 260.6328 15.08824406 53257,6917.928,95.439,540.733,538.854,0.0
52559.0,STARLINK-3953,PAYLOAD,2023-04-26 13:07:00,15.0885597,0.0001941,53.2149,144.5993,121.103,239.0153,-0.00073223,-0.00011928,0.0,0 STARLINK-3953,1 52559U 22051AC  23116.54653058 -.00011928  00000-0 -73223-3 0  9998,2 52559  53.2149 144.5993 0001941 121.1030 239.0153 15.08855970 53346,6917.832,95.437,541.039,538.354,0.0
52559.0,STARLINK-3953,PAYLOAD,2023-04-26 19:28:34,15.08826898,0.0001289,53.2146,143.4103,103.1741,256.9395,0.00033746,5.085e-05,0.0,0 STARLINK-3953,1 52559U 22051AC  23116.81151119  .00005085  00000-0  33746-3 0  9990,2 52559  53.2146 143.4103 0001289 103.1741 256.9395 15.08826898 53385,6917.92,95.438,540.677,538.894,0.0
52559.0,STARLINK-3953,PAYLOAD,2023-04-27 05:00:53,15.08834303,0.0001245,53.2145,141.6258,104.6526,255.4604,0.00037398,5.668e-05,0.0,0 STARLINK-3953,1 52559U 22051AC  23117.20895093  .00005668  00000-0  37398-3 0  9994,2 52559  53.2145 141.6258 0001245 104.6526 255.4604 15.08834303 53516,6917.898,95.438,540.624,538.902,0.0
52559.0,STARLINK-3953,PAYLOAD,2023-04-27 11:22:25,15.08842239,0.0001242,53.2145,140.4365,102.3236,257.7895,0.00041842,6.378e-05,0.0,0 STARLINK-3953,1 52559U 22051AC  23117.47390948  .00006378  00000-0  41842-3 0  9990,2 52559  53.2145 140.4365 0001242 102.3236 257.7895 15.08842239 53482,6917.874,95.437,540.598,538.879,0.0
52559.0,STARLINK-3953,PAYLOAD,2023-04-28 06:27:02,15.08856417,0.0001277,53.2148,136.8676,103.5467,256.5668,0.00041517,6.329e-05,0.0,0 STARLINK-3953,1 52559U 22051AC  23118.26878184  .00006329  00000-0  41517-3 0  9996,2 52559  53.2148 136.8676 0001277 103.5467 256.5668 15.08856417 53675,6917.83,95.437,540.579,538.812,0.0
52559.0,STARLINK-3953,PAYLOAD,2023-04-28 08:02:25,15.08859092,0.0001268,53.215,136.5702,100.8805,259.2329,0.00042377,6.466e-05,0.0,0 STARLINK-3953,1 52559U 22051AC  23118.33502057  .00006466  00000-0  42377-3 0  9994,2 52559  53.2150 136.5702 0001268 100.8805 259.2329 15.08859092 53611,6917.822,95.436,540.564,538.81,0.0
52559.0,STARLINK-3953,PAYLOAD,2023-04-28 17:34:44,15.08850344,0.0001616,53.215,134.786,89.1374,270.9804,0.00012572,1.714e-05,0.0,0 STARLINK-3953,1 52559U 22051AC  23118.73246125  .00001714  00000-0  12572-3 0  9994,2 52559  53.2150 134.7860 0001616  89.1374 270.9804 15.08850344 53746,6917.849,95.437,540.832,538.596,0.0
52559.0,STARLINK-3953,PAYLOAD,2023-04-29 04:42:25,15.08859962,0.0001025,53.2152,132.7048,96.3703,263.7406,0.00022742,3.335e-05,0.0,0 STARLINK-3953,1 52559U 22051AC  23119.19613108  .00003335  00000-0  22742-3 0  9995,2 52559  53.2152 132.7048 0001025  96.3703 263.7406 15.08859962 53815,6917.819,95.436,540.393,538.975,0.0
52559.0,STARLINK-3953,PAYLOAD,2023-04-29 12:39:21,15.08861722,0.0001157,53.2141,131.2176,95.82,264.2924,0.00022343,3.272e-05,0.0,0 STARLINK-3953,1 52559U 22051AC  23119.52732648  .00003272  00000-0  22343-3 0  9990,2 52559  53.2141 131.2176 0001157  95.8200 264.2924 15.08861722 53796,6917.814,95.436,540.479,538.879,0.0
52559.0,STARLINK-3953,PAYLOAD,2023-04-30 01:22:26,15.08838282,0.0001422,53.215,128.8369,115.8986,244.2153,-0.00023863,-4.084e-05,0.0,0 STARLINK-3953,1 52559U 22051AC  23120.05725129 -.00004084  00000-0 -23863-3 0  9998,2 52559  53.2150 128.8369 0001422 115.8986 244.2153 15.08838282 53945,6917.886,95.438,540.734,538.767,0.0
52559.0,STARLINK-3953,PAYLOAD,2023-05-01 05:59:23,15.08836323,0.0001092,53.2145,123.4864,107.5349,252.5762,5.4734e-05,5.83e-06,0.0,0 STARLINK-3953,1 52559U 22051AC  23121.24957878  .00000583  00000-0  54734-4 0  9998,2 52559  53.2145 123.4864 0001092 107.5349 252.5762 15.08836323 54127,6917.892,95.438,540.512,539.001,0.0
52559.0,STARLINK-3953,PAYLOAD,2023-05-01 09:10:09,15.08835863,0.0001152,53.215,122.891,109.7002,250.4115,8.0831e-05,9.99e-06,0.0,0 STARLINK-3953,1 52559U 22051AC  23121.38205986  .00000999  00000-0  80831-4 0  9997,2 52559  53.2150 122.8910 0001152 109.7002 250.4115 15.08835863 54076,6917.893,95.438,540.555,538.961,0.0
52559.0,STARLINK-3953,PAYLOAD,2023-05-02 09:00:57,15.08847307,0.0001027,53.2141,118.4295,106.2342,253.8763,0.00038575,5.858e-05,0.0,0 STARLINK-3953,1 52559U 22051AC  23122.37565976  .00005858  00000-0  38575-3 0  9991,2 52559  53.2141 118.4295 0001027 106.2342 253.8763 15.08847307 54299,6917.858,95.437,540.434,539.013,0.0
52559.0,STARLINK-3953,PAYLOAD,2023-05-02 16:57:52,15.08842351,0.0001057,53.2144,116.9423,101.493,258.6181,0.00025802,3.821e-05,0.0,0 STARLINK-3953,1 52559U 22051AC  23122.70686215  .00003821  00000-0  25802-3 0  9995,2 52559  53.2144 116.9423 0001057 101.4930 258.6181 15.08842351 54348,6917.873,95.437,540.469,539.007,0.0
52559.0,STARLINK-3953,PAYLOAD,2023-05-03 08:51:44,15.08839917,0.0001057,53.214,113.9694,94.4717,265.6396,0.00013665,1.888e-05,0.0,0 STARLINK-3953,1 52559U 22051AC  23123.36926429  .00001888  00000-0  13665-3 0  9997,2 52559  53.2140 113.9694 0001057  94.4717 265.6396 15.08839917 54446,6917.881,95.438,540.477,539.014,0.0
52559.0,STARLINK-3953,PAYLOAD,2023-05-04 08:42:31,15.08850308,0.0001275,53.2145,109.5087,102.294,257.8195,-0.0001227,-2.241e-05,0.0,0 STARLINK-3953,1 52559U 22051AC  23124.36285973 -.00002241  00000-0 -12270-3 0  9997,2 52559  53.2145 109.5087 0001275 102.2940 257.8195 15.08850308 54522,6917.849,95.437,540.596,538.832,0.0
52559.0,STARLINK-3953,PAYLOAD,2023-05-04 23:00:59,15.08843917,0.0001025,53.2144,106.8324,90.6927,269.4183,0.00019569,2.828e-05,0.0,0 STARLINK-3953,1 52559U 22051AC  23124.95902409  .00002828  00000-0  19569-3 0  9999,2 52559  53.2144 106.8324 0001025  90.6927 269.4183 15.08843917 54684,6917.868,95.437,540.442,539.024,0.0
52559.0,STARLINK-3953,PAYLOAD,2023-05-05 08:33:18,15.08848567,0.000102,53.2144,105.0485,86.9851,273.1257,0.00022684,3.325e-05,0.0,0 STARLINK-3953,1 52559U 22051AC  23125.35646100  .00003325  00000-0  22684-3 0  9992,2 52559  53.2144 105.0485 0001020  86.9851 273.1257 15.08848567 54671,6917.854,95.437,540.425,539.014,0.0
52559.0,STARLINK-3953,PAYLOAD,2023-05-05 22:51:46,15.08840357,0.000106,53.2139,102.3717,88.1506,271.9607,7.6482e-05,9.3e-06,0.0,0 STARLINK-3953,1 52559U 22051AC  23125.95262490  .00000930  00000-0  76482-4 0  9999,2 52559  53.2139 102.3717 0001060  88.1506 271.9607 15.08840357 54830,6917.879,95.438,540.478,539.011,0.0
52559.0,STARLINK-3953,PAYLOAD,2023-05-06 08:24:05,15.08842222,0.000111,53.2146,100.5874,90.9798,269.1321,7.5144e-05,9.08e-06,0.0,0 STARLINK-3953,1 52559U 22051AC  23126.35006365  .00000908  00000-0  75144-4 0  9990,2 52559  53.2146 100.5874 0001110  90.9798 269.1321 15.08842222 54826,6917.874,95.437,540.506,538.971,0.0
52559.0,STARLINK-3953,PAYLOAD,2023-05-07 01:53:20,15.0883856,0.0001091,53.2155,97.3163,90.3361,269.7756,9.5643e-06,-1.36e-06,0.0,0 STARLINK-3953,1 52559U 22051AC  23127.07870907 -.00000136  00000-0  95643-5 0  9992,2 52559  53.2155  97.3163 0001091  90.3361 269.7756 15.08838560 55007,6917.885,95.438,540.505,538.995,0.0
52559.0,STARLINK-3953,PAYLOAD,2023-05-07 03:28:43,15.08838645,0.0001092,53.2155,97.0189,89.9522,270.1595,7.2196e-06,-1.73e-06,0.0,0 STARLINK-3953,1 52559U 22051AC  23127.14494902 -.00000173  00000-0  72196-5 0  9996,2 52559  53.2155  97.0189 0001092  89.9522 270.1595 15.08838645 54949,6917.885,95.438,540.505,538.994,0.0
52559.0,STARLINK-3953,PAYLOAD,2023-05-08 04:54:54,15.08833908,0.000111,53.2159,92.2622,95.3653,264.7465,3.8269e-05,3.21e-06,0.0,0 STARLINK-3953,1 52559U 22051AC  23128.20479574  .00000321  00000-0  38269-4 0  9998,2 52559  53.2159  92.2622 0001110  95.3653 264.7465 15.08833908 55177,6917.899,95.438,540.532,538.996,0.0
52559.0,STARLINK-3953,PAYLOAD,2023-05-08 14:27:12,15.08838677,0.000114,53.2162,90.4775,91.8651,268.2472,9.6495e-05,1.248e-05,0.0,0 STARLINK-3953,1 52559U 22051AC  23128.60223225  .00001248  00000-0  96495-4 0  9996,2 52559  53.2162  90.4775 0001140  91.8651 268.2472 15.08838677 55166,6917.884,95.438,540.538,538.961,0.0
52559.0,STARLINK-3953,PAYLOAD,2023-05-09 04:45:40,15.08848449,0.0001216,53.2162,87.8023,88.6042,271.5089,0.00019523,2.821e-05,0.0,0 STARLINK-3953,1 52559U 22051AC  23129.19838500  .00002821  00000-0  19523-3 0  9993,2 52559  53.2162  87.8023 0001216  88.6042 271.5089 15.08848449 55253,6917.855,95.437,540.561,538.878,0.0
52559.0,STARLINK-3953,PAYLOAD,2023-05-10 04:36:28,15.08839161,0.0001299,53.2164,83.342,91.4072,268.7069,9.9094e-05,1.29e-05,0.0,0 STARLINK-3953,1 52559U 22051AC  23130.19199572  .00001290  00000-0  99094-4 0  9995,2 52559  53.2164  83.3420 0001299  91.4072 268.7069 15.08839161 55407,6917.883,95.438,540.647,538.849,0.0
